NORAD_CAT_ID,OBJECT_NAME,OBJECT_TYPE,EPOCH,MEAN_MOTION,ECCENTRICITY,INCLINATION,RA_OF_ASC_NODE,ARG_OF_PERICENTER,MEAN_ANOMALY,BSTAR,MEAN_MOTION_DOT,MEAN_MOTION_DDOT,TLE_LINE0,TLE_LINE1,TLE_LINE2,SEMIMAJOR_AXIS,PERIOD,APOGEE,PERIGEE,DECAYED
52135.0,STARLINK-3729,PAYLOAD,2022-08-08 14:00:01,15.08875855,0.0001893,53.2156,185.911,55.9888,102.7211,-0.0018362,-0.00029422,0.0,0 STARLINK-3729,1 52135U 22029AZ  22220.58335648 -.00029422  00000-0 -18362-2 0  9994,2 52135  53.2156 185.9110 0001893  55.9888 102.7211 15.08875855  1309,6917.771,95.435,540.945,538.326,0.0
52135.0,STARLINK-3729,PAYLOAD,2022-08-08 22:00:00,15.08865153,0.0001814,53.2159,184.414,60.8368,109.4338,-0.0011517,-0.00018583,0.0,0 STARLINK-3729,1 52135U 22029AZ  22220.91667824 -.00018583  00000-0 -11517-2 0  9996,2 52135  53.2159 184.4140 0001814  60.8368 109.4338 15.08865153  1304,6917.804,95.436,540.923,538.414,0.0
52135.0,STARLINK-3729,PAYLOAD,2022-08-09 14:00:01,15.08836826,0.0001786999999999,53.2157,181.4217,53.5071,139.97,-0.0015079,-0.00024204,0.0,0 STARLINK-3729,1 52135U 22029AZ  22221.58334491 -.00024204  00000-0 -15079-2 0  9995,2 52135  53.2157 181.4217 0001787  53.5071 139.9700 15.08836826 23459,6917.89,95.438,540.991,538.519,0.0
52135.0,STARLINK-3729,PAYLOAD,2022-08-09 22:00:00,15.08835217,0.000184,53.2161,179.9249,59.7551,145.2993,-0.0019295,-0.00030861,0.0,0 STARLINK-3729,1 52135U 22029AZ  22221.91667824 -.00030861  00000-0 -19295-2 0  9991,2 52135  53.2161 179.9249 0001840  59.7551 145.2993 15.08835217  1309,6917.895,95.438,541.033,538.487,0.0
52135.0,STARLINK-3729,PAYLOAD,2022-08-10 14:00:01,15.08828001,0.0001942,53.2164,176.9327,55.9636,172.2252,-0.001302,-0.00020943,0.0,0 STARLINK-3729,1 52135U 22029AZ  22222.58334491 -.00020943  00000-0 -13020-2 0  9996,2 52135  53.2164 176.9327 0001942  55.9636 172.2252 15.08828001  1302,6917.917,95.438,541.126,538.439,0.0
52135.0,STARLINK-3729,PAYLOAD,2022-08-10 22:00:00,15.08828367,0.0001956999999999,53.2168,175.4389,60.9721,178.7826,0.00080764,0.00012585,0.0,0 STARLINK-3729,1 52135U 22029AZ  22222.91667824  .00012585  00000-0  80764-3 0  9993,2 52135  53.2168 175.4389 0001957  60.9721 178.7826 15.08828367  1308,6917.916,95.438,541.135,538.427,0.0
52135.0,STARLINK-3729,PAYLOAD,2022-08-11 06:00:02,15.08811149,0.0002151999999999,53.217,173.9414,54.7174,196.6875,0.0023074,0.00036597,0.0,0 STARLINK-3729,1 52135U 22029AZ  22223.25002315  .00036597  00000-0  23074-2 0  9998,2 52135  53.2170 173.9414 0002152  54.7174 196.6875 15.08811149 23705,6917.969,95.439,541.322,538.345,0.0
52135.0,STARLINK-3729,PAYLOAD,2022-08-11 14:00:01,15.08844814,0.0002026,53.2174,172.4437,57.5691,205.3501,-0.00091874,-0.00014882,0.0,0 STARLINK-3729,1 52135U 22029AZ  22223.58334491 -.00014882  00000-0 -91874-3 0  9996,2 52135  53.2174 172.4437 0002026  57.5691 205.3501 15.08844814  1304,6917.866,95.437,541.132,538.3290000000002,0.0
52135.0,STARLINK-3729,PAYLOAD,2022-08-11 22:00:00,15.08853045,0.0002046999999999,53.2177,170.9472,61.617,212.8909,1.2301e-05,-9.2e-07,0.0,0 STARLINK-3729,1 52135U 22029AZ  22223.91667824 -.00000092  00000-0  12301-4 0  9998,2 52135  53.2177 170.9472 0002047  61.6170 212.8909 15.08853045 23800,6917.840999999999,95.437,541.122,538.289,0.0
52135.0,STARLINK-3729,PAYLOAD,2022-08-12 14:00:01,15.08861379,0.0001988,53.2181,167.9548,58.622,239.1188,-0.0020889,-0.00033399,0.0,0 STARLINK-3729,1 52135U 22029AZ  22224.58334491 -.00033399  00000-0 -20889-2 0  9998,2 52135  53.2181 167.9548 0001988  58.6220 239.1188 15.08861379  1301,6917.815,95.436,541.055,538.305,0.0
52135.0,STARLINK-3729,PAYLOAD,2022-08-12 22:00:01,15.0885857,0.0001943999999999,53.2184,166.4584,61.1167,248.2804,-0.00083764,-0.00013601,0.0,0 STARLINK-3729,1 52135U 22029AZ  22224.91668981 -.00013601  00000-0 -83764-3 0  9995,2 52135  53.2184 166.4584 0001944  61.1167 248.2804 15.08858570  1304,6917.824000000001,95.436,541.033,538.344,0.0
52135.0,STARLINK-3729,PAYLOAD,2022-08-13 04:00:00,15.08845881,0.0002034,53.2183,165.3377,55.1741,172.8679,-0.0022210999999999,-0.0003546999999999,0.0,0 STARLINK-3729,1 52135U 22029AZ  22225.16667824 -.00035470  00000-0 -22211-2 0  9995,2 52135  53.2183 165.3377 0002034  55.1741 172.8679 15.08845881 23995,6917.861999999999,95.437,541.135,538.32,0.0
52135.0,STARLINK-3729,PAYLOAD,2022-08-13 14:00:01,15.0881684,0.0001791,53.2184,163.466,56.9951,275.5348,-0.0016277999999999,-0.00026085,0.0,0 STARLINK-3729,1 52135U 22029AZ  22225.58334491 -.00026085  00000-0 -16278-2 0  9990,2 52135  53.2184 163.4660 0001791  56.9951 275.5348 15.08816840  1309,6917.951,95.439,541.055,538.577,0.0
52135.0,STARLINK-3729,PAYLOAD,2022-08-13 22:00:00,15.08821015,0.000176,53.2186,161.97,59.4343,284.6458,-0.00073217,-0.00011916,0.0,0 STARLINK-3729,1 52135U 22029AZ  22225.91667824 -.00011916  00000-0 -73217-3 0  9990,2 52135  53.2186 161.9700 0001760  59.4343 284.6458 15.08821015  1301,6917.938,95.439,541.021,538.586,0.0
52135.0,STARLINK-3729,PAYLOAD,2022-08-14 14:00:01,15.08834174,0.0001776,53.2181,158.9772,60.1314,307.18,-0.00080061,-0.00013005,0.0,0 STARLINK-3729,1 52135U 22029AZ  22226.58334491 -.00013005  00000-0 -80061-3 0  9991,2 52135  53.2181 158.9772 0001776  60.1314 307.1800 15.08834174  1307,6917.898,95.438,540.992,538.535,0.0
52135.0,STARLINK-3729,PAYLOAD,2022-08-14 22:00:00,15.08846727,0.0001776999999999,53.2181,157.4814,61.3635,317.523,-0.0010912,-0.00017616,0.0,0 STARLINK-3729,1 52135U 22029AZ  22226.91667824 -.00017616  00000-0 -10912-2 0  9996,2 52135  53.2181 157.4814 0001777  61.3635 317.5230 15.08846727  1307,6917.86,95.437,540.9540000000002,538.496,0.0
52135.0,STARLINK-3729,PAYLOAD,2022-08-15 14:00:01,15.08833837,0.0001733999999999,53.2174,154.4884,61.3627,340.706,0.00043903,6.705e-05,0.0,0 STARLINK-3729,1 52135U 22029AZ  22227.58334491  .00006705  00000-0  43903-3 0  9993,2 52135  53.2174 154.4884 0001734  61.3627 340.7060 15.08833837  1304,6917.899,95.438,540.964,538.565,0.0
52135.0,STARLINK-3729,PAYLOAD,2022-08-15 22:00:00,15.08852222,0.0001745,53.2174,152.9927,61.8864,351.7715,-0.0029983,-0.00047707,0.0,0 STARLINK-3729,1 52135U 22029AZ  22227.91667824 -.00047707  00000-0 -29983-2 0  9999,2 52135  53.2174 152.9927 0001745  61.8864 351.7715 15.08852222  1303,6917.843000000003,95.437,540.915,538.501,0.0
52135.0,STARLINK-3729,PAYLOAD,2022-08-16 14:00:01,15.08816255,0.0001696999999999,53.2169,149.9995,61.4529,15.3783,0.0017867,0.00028243,0.0,0 STARLINK-3729,1 52135U 22029AZ  22228.58334491  .00028243  00000-0  17867-2 0  9994,2 52135  53.2169 149.9995 0001697  61.4529  15.3783 15.08816255 24510,6917.953,95.439,540.992,538.644,0.0
52135.0,STARLINK-3729,PAYLOAD,2022-08-16 22:00:00,15.08856566,0.0001793,53.2168,148.5038,61.9813,26.4269,-0.0014918,-0.00023963,0.0,0 STARLINK-3729,1 52135U 22029AZ  22228.91667824 -.00023963  00000-0 -14918-2 0  9990,2 52135  53.2168 148.5038 0001793  61.9813  26.4269 15.08856566  1303,6917.83,95.437,540.935,538.4540000000002,0.0
52135.0,STARLINK-3729,PAYLOAD,2022-08-17 14:00:01,15.08807845,0.0001662,53.2166,145.5102,60.1062,51.5128,0.0022239,0.00035252,0.0,0 STARLINK-3729,1 52135U 22029AZ  22229.58334491  .00035252  00000-0  22239-2 0  9992,2 52135  53.2166 145.5102 0001662  60.1062  51.5128 15.08807845 24665,6917.979,95.44,540.993,538.694,0.0
52135.0,STARLINK-3729,PAYLOAD,2022-08-17 16:00:00,15.0880766,0.0001685,53.2165,145.1358,61.4928,143.0194,0.0027976999999999,0.00044479,0.0,0 STARLINK-3729,1 52135U 22029AZ  22229.66667824  .00044479  00000-0  27977-2 0  9995,2 52135  53.2165 145.1358 0001685  61.4928 143.0194 15.08807660  1304,6917.979,95.44,541.01,538.679,0.0
52135.0,STARLINK-3729,PAYLOAD,2022-08-18 14:00:01,15.0885456,0.0001695,53.2168,141.02100000000004,60.213,86.1996,0.0010965,0.00017213,0.0,0 STARLINK-3729,1 52135U 22029AZ  22230.58334491  .00017213  00000-0  10965-2 0  9994,2 52135  53.2168 141.0210 0001695  60.2130  86.1996 15.08854560  1300,6917.8359999999975,95.437,540.873,538.528,0.0
52135.0,STARLINK-3729,PAYLOAD,2022-08-18 22:00:00,15.08867752,0.0001737,53.2171,139.5254,59.1281,98.9064,-0.0010941,-0.00017672,0.0,0 STARLINK-3729,1 52135U 22029AZ  22230.91667824 -.00017672  00000-0 -10941-2 0  9995,2 52135  53.2171 139.5254 0001737  59.1281  98.9064 15.08867752 24865,6917.795999999999,95.436,540.862,538.4590000000002,0.0
52135.0,STARLINK-3729,PAYLOAD,2022-08-19 14:00:01,15.087916,0.0001501999999999,53.2173,136.5317,54.6615,126.5815,0.0022802,0.0003614,0.0,0 STARLINK-3729,1 52135U 22029AZ  22231.58334491  .00036140  00000-0  22802-2 0  9998,2 52135  53.2173 136.5317 0001502  54.6615 126.5815 15.08791600 24966,6918.028,95.441,540.932,538.854,0.0
52135.0,STARLINK-3729,PAYLOAD,2022-08-19 22:00:00,15.08825301,0.0001635,53.2176,135.0365,53.9892,138.8019,-0.0011376,-0.0001834,0.0,0 STARLINK-3729,1 52135U 22029AZ  22231.91667824 -.00018340  00000-0 -11376-2 0  9992,2 52135  53.2176 135.0365 0001635  53.9892 138.8019 15.08825301  1303,6917.925,95.438,540.9209999999998,538.659,0.0
52135.0,STARLINK-3729,PAYLOAD,2022-08-20 06:00:00,15.08813751,0.0001721999999999,53.2174,133.5408,49.3382,155.0202,0.0014939,0.0002355,0.0,0 STARLINK-3729,1 52135U 22029AZ  22232.25001157  .00023550  00000-0  14939-2 0  9996,2 52135  53.2174 133.5408 0001722  49.3382 155.0202 15.08813751 25062,6917.9609999999975,95.439,541.0169999999998,538.634,0.0
52135.0,STARLINK-3729,PAYLOAD,2022-08-20 14:00:01,15.08808534,0.0001551999999999,53.2177,132.0428,56.4249,159.5188,0.0030669,0.00048818,0.0,0 STARLINK-3729,1 52135U 22029AZ  22232.58334491  .00048818  00000-0  30669-2 0  9994,2 52135  53.2177 132.0428 0001552  56.4249 159.5188 15.08808534  1309,6917.977,95.44,540.915,538.768,0.0
52135.0,STARLINK-3729,PAYLOAD,2022-08-20 22:00:00,15.08849405,0.0001666999999999,53.2179,130.5478,54.8431,172.6774,-0.00099608,-0.0001610999999999,0.0,0 STARLINK-3729,1 52135U 22029AZ  22232.91667824 -.00016110  00000-0 -99608-3 0  9991,2 52135  53.2179 130.5478 0001667  54.8431 172.6774 15.08849405  1300,6917.852,95.437,540.87,538.563,0.0
